STARLINK-37217          
1 68335U 26059Q   26093.78054156  .00454334  00000+0  21724-2 0  9993
2 68335  53.1596 237.0216 0000530  25.0417 335.0631 15.81011210  1949
STARLINK-37143          
1 68336U 26059R   26093.77981107  .00522624  00000+0  24836-2 0  9993
2 68336  53.1598 237.0168 0001081 139.3033 220.8071 15.80967214  1945
STARLINK-36237          
1 68337U 26059S   26093.77904017  .00428361  00000+0  20532-2 0  9991
2 68337  53.1597 237.0116 0001276  53.5873 306.5267 15.81028462  1946
STARLINK-36254          
1 68338U 26059T   26093.77756115  .00370398  00000+0  17965-2 0  9998
2 68338  53.1600 237.0020 0001308  57.9000 302.2149 15.80925039  1949
STARLINK-37200          
1 68339U 26059U   26093.77831203  .00485472  00000+0  23190-2 0  9998
2 68339  53.1600 237.0066 0000975 109.3883 250.7245 15.80951831  1943
STARLINK-37185          
1 68340U 26059V   26093.77678988  .00220188  00000+0  10870-2 0  9991
2 68340  53.1601 236.9968 0000644  59.8772 300.2314 15.80951614  1941
STARLINK-37181          
1 68341U 26059W   26093.83927553  .00369728  00000+0  17905-2 0  9994
2 68341  53.1600 236.6744 0000548 131.9209 228.1861 15.80958516  1954
STARLINK-37192          
1 68342U 26059X   26093.77455934  .00333053  00000+0  16230-2 0  9999
2 68342  53.1600 236.9816 0000822 109.5759 250.5352 15.80921412  1942
STARLINK-37158          
1 68343U 26059Y   26093.77378867  .00245651  00000+0  12081-2 0  9995
2 68343  53.1598 236.9764 0000772  48.2446 311.8643 15.80960957  1948
STARLINK-36380          
1 68344U 26059Z   26093.77530895  .00561796  00000+0  26558-2 0  9992
2 68344  53.1601 236.9864 0000770 125.3243 234.7852 15.80977892  1946
STARLINK-37214          
1 68345U 26059AA  26093.77230678  .00397546  00000+0  19205-2 0  9990
2 68345  53.1602 236.9655 0000533  58.5448 301.5626 15.80938799  1942
STARLINK-37169          
1 68346U 26059AB  26093.77155677  .00465184  00000+0  22265-2 0  9990
2 68346  53.1597 236.9601 0000755  80.7122 279.3986 15.80962223  1949
STARLINK-37136          
1 68347U 26059AC  26093.77080713  .00505004  00000+0  24059-2 0  9998
2 68347  53.1591 236.9557 0000687  52.2840 307.8245 15.80957863  1948
STARLINK-37182          
1 68348U 26059AD  26093.77303798  .00259174  00000+0  12722-2 0  9998
2 68348  53.1596 236.9706 0000373  68.1791 291.9272 15.80964945  1945
STARLINK-37183          
1 68349U 26059AE  26093.77005502  .00467224  00000+0  22350-2 0  9996
2 68349  53.1589 236.9503 0000490 109.2002 250.9074 15.80967952  1941
CENTISPACE-1 OBJECT A   
1 68350U 26060A   26090.92174954  .00002073  00000+0  33708-3 0  9999
2 68350  54.9828 350.9279 0013011 316.4493  43.5478 14.74887229  1375
CENTISPACE-1 OBJECT B   
1 68351U 26060B   26093.90344249  .00002534  00000+0  40462-3 0  9994
2 68351  54.9821 338.7612 0013457 324.5829  35.4276 14.74940891  1811
